[{"OBJECT_NAME":"DUBAISAT-1","OBJECT_ID":"2009-041B","EPOCH":"2026-03-09T21:53:38.052672","MEAN_MOTION":14.74907438,"ECCENTRICITY":0.00110546,"INCLINATION":97.9873,"RA_OF_ASC_NODE":203.3619,"ARG_OF_PERICENTER":35.633,"MEAN_ANOMALY":324.5615,"EPHEMERIS_TYPE":0,"CLASSIFICATION_TYPE":"U","NORAD_CAT_ID":35682,"ELEMENT_SET_NO":999,"REV_AT_EPOCH":89046,"BSTAR":0.00024928583,"MEAN_MOTION_DOT":1.624e-5,"MEAN_MOTION_DDOT":0},{"OBJECT_NAME":"DELTA 1 DEB","OBJECT_ID":"1977-065AX","EPOCH":"2026-03-09T21:56:00.944448","MEAN_MOTION":14.10299207,"ECCENTRICITY":0.03601685,"INCLINATION":29.1397,"RA_OF_ASC_NODE":312.4958,"ARG_OF_PERICENTER":271.9034,"MEAN_ANOMALY":84.0338,"EPHEMERIS_TYPE":0,"CLASSIFICATION_TYPE":"U","NORAD_CAT_ID":10220,"ELEMENT_SET_NO":999,"REV_AT_EPOCH":36251,"BSTAR":0.0013961074,"MEAN_MOTION_DOT":4.734e-5,"MEAN_MOTION_DDOT":0}]
